NORAD_CAT_ID,OBJECT_NAME,OBJECT_TYPE,EPOCH,MEAN_MOTION,ECCENTRICITY,INCLINATION,RA_OF_ASC_NODE,ARG_OF_PERICENTER,MEAN_ANOMALY,BSTAR,MEAN_MOTION_DOT,MEAN_MOTION_DDOT,TLE_LINE0,TLE_LINE1,TLE_LINE2,SEMIMAJOR_AXIS,PERIOD,APOGEE,PERIGEE,DECAYED
52089.0,STARLINK-3722,PAYLOAD,2023-09-23 00:18:11,15.08845316,0.0001571,53.2167,163.4398,80.7263,279.3907,0.00038676,5.874e-05,0.0,0 STARLINK-3722,1 52089U 22029B   23266.01263689  .00005874  00000-0  38676-3 0  9990,2 52089  53.2167 163.4398 0001571  80.7263 279.3907 15.08845316 84981,6917.864,95.437,540.816,538.642,0.0
52089.0,STARLINK-3722,PAYLOAD,2023-09-24 01:44:21,15.08848579,0.0001363,53.2165,158.6842,81.2691,278.8455,4.6034e-05,4.45e-06,0.0,0 STARLINK-3722,1 52089U 22029B   23267.07247259  .00000445  00000-0  46034-4 0  9999,2 52089  53.2165 158.6842 0001363  81.2691 278.8455 15.08848579 85144,6917.854,95.437,540.662,538.776,0.0
52089.0,STARLINK-3722,PAYLOAD,2023-09-24 20:48:59,15.08842174,0.000185,53.2169,155.1142,92.2273,267.8931,-0.00016623,-2.933e-05,0.0,0 STARLINK-3722,1 52089U 22029B   23267.86735505 -.00002933  00000-0 -16623-3 0  9998,2 52089  53.2169 155.1142 0001850  92.2273 267.8931 15.08842174 85267,6917.874,95.437,541.019,538.459,0.0
52089.0,STARLINK-3722,PAYLOAD,2023-09-24 22:24:22,15.08838053,0.0001472,53.2163,154.8162,92.3015,267.8145,2.7412e-05,1.48e-06,0.0,0 STARLINK-3722,1 52089U 22029B   23267.93359879  .00000148  00000-0  27412-4 0  9995,2 52089  53.2163 154.8162 0001472  92.3015 267.8145 15.08838053 85273,6917.886,95.438,540.77,538.733,0.0
52089.0,STARLINK-3722,PAYLOAD,2023-09-25 09:32:04,15.08847569,0.0001212,53.2157,152.7354,84.1624,275.9506,0.00028597,4.267e-05,0.0,0 STARLINK-3722,1 52089U 22029B   23268.39727583  .00004267  00000-0  28597-3 0  9997,2 52089  53.2157 152.7354 0001212  84.1624 275.9506 15.08847569 85344,6917.857,95.437,540.561,538.884,0.0
52089.0,STARLINK-3722,PAYLOAD,2023-09-25 20:39:46,15.08855314,0.0001203,53.2161,150.6518,87.0115,273.1015,0.00034834,5.263e-05,0.0,0 STARLINK-3722,1 52089U 22029B   23268.86095125  .00005263  00000-0  34834-3 0  9997,2 52089  53.2161 150.6518 0001203  87.0115 273.1015 15.08855314 85415,6917.834,95.437,540.531,538.866,0.0
52089.0,STARLINK-3722,PAYLOAD,2023-09-25 22:15:09,15.08858674,0.0001273,53.216,150.3546,86.7612,273.3526,0.00050064,7.693e-05,0.0,0 STARLINK-3722,1 52089U 22029B   23268.92719080  .00007693  00000-0  50064-3 0  9999,2 52089  53.2160 150.3546 0001273  86.7612 273.3526 15.08858674 85429,6917.823,95.436,540.569,538.808,0.0
52089.0,STARLINK-3722,PAYLOAD,2023-09-25 23:50:32,15.08864194,0.0001314,53.2161,150.0574,88.2566,271.8576,0.00075703,0.00011789,0.0,0 STARLINK-3722,1 52089U 22029B   23268.99342989  .00011789  00000-0  75703-3 0  9994,2 52089  53.2161 150.0574 0001314  88.2566 271.8576 15.08864194 85432,6917.806,95.436,540.58,538.762,0.0
52089.0,STARLINK-3722,PAYLOAD,2023-09-26 20:30:34,15.08836913,0.0001685,53.2156,146.1905,81.7796,278.3387,0.00011202,1.495e-05,0.0,0 STARLINK-3722,1 52089U 22029B   23269.85456091  .00001495  00000-0  11202-3 0  9997,2 52089  53.2156 146.1905 0001685  81.7796 278.3387 15.08836913 85568,6917.89,95.438,540.92,538.589,0.0
52089.0,STARLINK-3722,PAYLOAD,2023-09-27 01:16:43,15.08834163,0.0001716,53.2163,145.2986,73.951,286.1671,0.00013283,1.826e-05,0.0,0 STARLINK-3722,1 52089U 22029B   23270.05328338  .00001826  00000-0  13283-3 0  9992,2 52089  53.2163 145.2986 0001716  73.9510 286.1671 15.08834163 85598,6917.898,95.438,540.95,538.576,0.0
52089.0,STARLINK-3722,PAYLOAD,2023-09-27 09:13:39,15.08829375,0.0001585,53.2157,143.8122,85.9141,274.2033,0.00012793,1.748e-05,0.0,0 STARLINK-3722,1 52089U 22029B   23270.38448665  .00001748  00000-0  12793-3 0  9992,2 52089  53.2157 143.8122 0001585  85.9141 274.2033 15.08829375 85649,6917.913,95.438,540.874,538.681,0.0
52089.0,STARLINK-3722,PAYLOAD,2023-09-27 20:21:22,15.08827639,0.0001592,53.2159,141.7303,92.9949,267.1225,0.00024967,3.686e-05,0.0,0 STARLINK-3722,1 52089U 22029B   23270.84817213  .00003686  00000-0  24967-3 0  9991,2 52089  53.2159 141.7303 0001592  92.9949 267.1225 15.08827639 85714,6917.918,95.438,540.885,538.682,0.0
52089.0,STARLINK-3722,PAYLOAD,2023-09-28 01:07:31,15.08834866,0.0001605,53.216,140.837,102.3234,257.7937,0.00031036,4.654e-05,0.0,0 STARLINK-3722,1 52089U 22029B   23271.04689079  .00004654  00000-0  31036-3 0  9992,2 52089  53.2160 140.8370 0001605 102.3234 257.7937 15.08834866 85746,6917.896,95.438,540.871,538.651,0.0
52089.0,STARLINK-3722,PAYLOAD,2023-09-28 21:47:31,15.08852808,0.000164,53.2158,136.9713,98.5434,261.5744,0.00053838,8.294e-05,0.0,0 STARLINK-3722,1 52089U 22029B   23271.90800656  .00008294  00000-0  53838-3 0  9991,2 52089  53.2158 136.9713 0001640  98.5434 261.5744 15.08852808 85876,6917.841,95.437,540.841,538.572,0.0
52089.0,STARLINK-3722,PAYLOAD,2023-09-29 00:58:17,15.08855045,0.0001636,53.2157,136.3768,97.8203,262.2975,0.00053717,8.275e-05,0.0,0 STARLINK-3722,1 52089U 22029B   23272.04048530  .00008275  00000-0  53717-3 0  9997,2 52089  53.2157 136.3768 0001636  97.8203 262.2975 15.08855045 85892,6917.834,95.437,540.831,538.568,0.0
52089.0,STARLINK-3722,PAYLOAD,2023-09-29 18:27:32,15.08852519,0.000187,53.215,133.1026,119.0524,241.0655,0.00023008,3.377e-05,0.0,0 STARLINK-3722,1 52089U 22029B   23272.76912110  .00003377  00000-0  23008-3 0  9998,2 52089  53.2150 133.1026 0001870 119.0524 241.0655 15.08852519 86007,6917.842,95.437,541.001,538.413,0.0
52089.0,STARLINK-3722,PAYLOAD,2023-09-29 20:02:55,15.08853132,0.0001882,53.2153,132.8051,119.8558,240.2622,0.00022527,3.3e-05,0.0,0 STARLINK-3722,1 52089U 22029B   23272.83536036  .00003300  00000-0  22527-3 0  9996,2 52089  53.2153 132.8051 0001882 119.8558 240.2622 15.08853132 86010,6917.84,95.437,541.007,538.403,0.0
52089.0,STARLINK-3722,PAYLOAD,2023-09-30 07:10:37,15.08846369,0.0001578,53.216,130.7273,87.3832,272.7341,5.4491e-05,5.79e-06,0.0,0 STARLINK-3722,1 52089U 22029B   23273.29904150  .00000579  00000-0  54491-4 0  9994,2 52089  53.2160 130.7273 0001578  87.3832 272.7341 15.08846369 86086,6917.861,95.437,540.818,538.634,0.0
52089.0,STARLINK-3722,PAYLOAD,2023-10-01 07:01:24,15.08847665,0.0001355,53.2151,126.2665,90.8807,269.234,0.0001744,2.489e-05,0.0,0 STARLINK-3722,1 52089U 22029B   23274.29264077  .00002489  00000-0  17440-3 0  9996,2 52089  53.2151 126.2665 0001355  90.8807 269.2340 15.08847665 86232,6917.857,95.437,540.659,538.785,0.0
52089.0,STARLINK-3722,PAYLOAD,2023-10-01 18:09:06,15.08843095,0.0001272,53.2151,124.1857,93.9774,266.1363,0.00012858,1.759e-05,0.0,0 STARLINK-3722,1 52089U 22029B   23274.75632219  .00001759  00000-0  12858-3 0  9991,2 52089  53.2151 124.1857 0001272  93.9774 266.1363 15.08843095 86309,6917.871,95.437,540.616,538.856,0.0
52089.0,STARLINK-3722,PAYLOAD,2023-10-01 21:19:52,15.08848225,0.0001301,53.2151,123.5926,95.567,264.547,0.00017184,2.449e-05,0.0,0 STARLINK-3722,1 52089U 22029B   23274.88880039  .00002449  00000-0  17184-3 0  9994,2 52089  53.2151 123.5926 0001301  95.5670 264.5470 15.08848225 86328,6917.855,95.437,540.62,538.82,0.0
52089.0,STARLINK-3722,PAYLOAD,2023-10-02 19:35:12,15.08956271,0.0001528,53.2153,119.4275,150.2073,209.9007,0.0023391,0.00037255,0.0,0 STARLINK-3722,1 52089U 22029B   23275.81611880  .00037255  00000-0  23391-2 0  9993,2 52089  53.2153 119.4275 0001528 150.2073 209.9007 15.08956271 86463,6917.525,95.43,540.447,538.333,0.0
52089.0,STARLINK-3722,PAYLOAD,2023-10-03 03:32:12,15.08843271,0.000125,53.2151,117.9407,100.2463,259.867,9.1842e-05,1.174e-05,0.0,0 STARLINK-3722,1 52089U 22029B   23276.14736146  .00001174  00000-0  91842-4 0  9992,2 52089  53.2151 117.9407 0001250 100.2463 259.8670 15.08843271 86512,6917.87,95.437,540.6,538.871,0.0
52089.0,STARLINK-3722,PAYLOAD,2023-10-03 06:42:58,15.08833154,0.0001274,53.2154,117.346,95.4082,264.7055,-9.0605e-05,-1.729e-05,0.0,0 STARLINK-3722,1 52089U 22029B   23276.27984593 -.00001729  00000-0 -90605-4 0  9991,2 52089  53.2154 117.3460 0001274  95.4082 264.7055 15.08833154 86539,6917.901,95.438,540.648,538.885,0.0
52089.0,STARLINK-3722,PAYLOAD,2023-10-03 21:01:26,15.08845756,0.0001289,53.2149,114.6702,95.3388,264.7751,0.00018482,2.655e-05,0.0,0 STARLINK-3722,1 52089U 22029B   23276.87600341  .00002655  00000-0  18482-3 0  9992,2 52089  53.2149 114.6702 0001289  95.3388 264.7751 15.08845756 86620,6917.863,95.437,540.62,538.836,0.0
52089.0,STARLINK-3722,PAYLOAD,2023-10-04 06:33:45,15.08841787,0.0001218,53.2156,112.883,91.3518,268.7614,1.4122e-05,-6.3e-07,0.0,0 STARLINK-3722,1 52089U 22029B   23277.27344409 -.00000063  00000-0  14122-4 0  9997,2 52089  53.2156 112.8830 0001218  91.3518 268.7614 15.08841787 86681,6917.875,95.437,540.583,538.897,0.0
52089.0,STARLINK-3722,PAYLOAD,2023-10-04 19:16:50,15.08843715,0.0001363,53.215,110.5067,85.3833,274.7315,0.00022057,3.225e-05,0.0,0 STARLINK-3722,1 52089U 22029B   23277.80336656  .00003225  00000-0  22057-3 0  9998,2 52089  53.2150 110.5067 0001363  85.3833 274.7315 15.08843715 86763,6917.869,95.437,540.677,538.791,0.0
52089.0,STARLINK-3722,PAYLOAD,2023-10-05 06:24:32,15.08846664,0.0001394,53.2155,108.4244,90.7595,269.3557,0.00017087,2.433e-05,0.0,0 STARLINK-3722,1 52089U 22029B   23278.26704447  .00002433  00000-0  17087-3 0  9993,2 52089  53.2155 108.4244 0001394  90.7595 269.3557 15.08846664 86832,6917.86,95.437,540.689,538.761,0.0
52089.0,STARLINK-3722,PAYLOAD,2023-10-05 22:18:23,15.08847263,0.0001507,53.2159,105.4501,97.4736,262.6427,0.00011839,1.597e-05,0.0,0 STARLINK-3722,1 52089U 22029B   23278.92944335  .00001597  00000-0  11839-3 0  9997,2 52089  53.2159 105.4501 0001507  97.4736 262.6427 15.08847263 86935,6917.858,95.437,540.766,538.681,0.0
52089.0,STARLINK-3722,PAYLOAD,2023-10-06 12:36:52,15.08836202,0.0001249,53.2154,102.7753,93.7791,266.3344,2.6138e-05,1.28e-06,0.0,0 STARLINK-3722,1 52089U 22029B   23279.52561024  .00000128  00000-0  26138-4 0  9992,2 52089  53.2154 102.7753 0001249  93.7791 266.3344 15.08836202 87023,6917.892,95.438,540.621,538.893,0.0
